[{"OBJECT_NAME":"STARLINK-2171","OBJECT_ID":"2021-017AJ","EPOCH":"2026-03-10T00:00:02.999808","MEAN_MOTION":15.70905931,"ECCENTRICITY":0.0002371,"INCLINATION":53.0436,"RA_OF_ASC_NODE":167.0252,"ARG_OF_PERICENTER":165.5816,"MEAN_ANOMALY":179.0332,"EPHEMERIS_TYPE":0,"CLASSIFICATION_TYPE":"U","NORAD_CAT_ID":47754,"ELEMENT_SET_NO":999,"REV_AT_EPOCH":590,"BSTAR":0.00011207161,"MEAN_MOTION_DOT":0.00013697,"MEAN_MOTION_DDOT":0},{"OBJECT_NAME":"STARLINK-11232 [DTC]","OBJECT_ID":"2024-141D","EPOCH":"2026-03-09T06:56:26.845440","MEAN_MOTION":15.69730151,"ECCENTRICITY":0.000132,"INCLINATION":53.1592,"RA_OF_ASC_NODE":87.9692,"ARG_OF_PERICENTER":100.2843,"MEAN_ANOMALY":259.8324,"EPHEMERIS_TYPE":0,"CLASSIFICATION_TYPE":"U","NORAD_CAT_ID":60401,"ELEMENT_SET_NO":999,"REV_AT_EPOCH":9168,"BSTAR":1.2142619e-5,"MEAN_MOTION_DOT":8.83e-6,"MEAN_MOTION_DDOT":0}]
